NORAD_CAT_ID,OBJECT_NAME,OBJECT_TYPE,EPOCH,MEAN_MOTION,ECCENTRICITY,INCLINATION,RA_OF_ASC_NODE,ARG_OF_PERICENTER,MEAN_ANOMALY,BSTAR,MEAN_MOTION_DOT,MEAN_MOTION_DDOT,TLE_LINE0,TLE_LINE1,TLE_LINE2,SEMIMAJOR_AXIS,PERIOD,APOGEE,PERIGEE,DECAYED
55915.0,STARLINK-5859,PAYLOAD,2023-10-21 20:36:39,14.98329506,0.0002637,69.9997,337.6626,276.5219,83.5639,-3.6894e-05,-5.33e-06,0.0,0 STARLINK-5859,1 55915U 23037B   23294.85878952 -.00000533  00000-0 -36894-4 0  9999,2 55915  69.9997 337.6626 0002637 276.5219  83.5639 14.98329506 33882,6950.194,96.107,573.892,570.227,0.0
55915.0,STARLINK-5859,PAYLOAD,2023-10-22 04:37:19,14.9832565,0.0003046,69.9988,336.8219,273.5347,86.5463,0.00011745,1.308e-05,0.0,0 STARLINK-5859,1 55915U 23037B   23295.19258630  .00001308  00000-0  11745-3 0  9998,2 55915  69.9988 336.8219 0003046 273.5347  86.5463 14.98325650 33586,6950.206,96.107,574.188,569.954,0.0
55915.0,STARLINK-5859,PAYLOAD,2023-10-22 12:37:59,14.98328424,0.0002903,69.9989,335.9806,270.1066,89.976,9.5894e-05,1.051e-05,0.0,0 STARLINK-5859,1 55915U 23037B   23295.52638573  .00001051  00000-0  95894-4 0  9996,2 55915  69.9989 335.9806 0002903 270.1066  89.9760 14.98328424 33984,6950.198,96.107,574.08,570.045,0.0
55915.0,STARLINK-5859,PAYLOAD,2023-10-22 20:38:40,14.98325815,0.0002661,69.9997,335.1393,266.9001,93.1853,1.9623e-06,-7e-07,0.0,0 STARLINK-5859,1 55915U 23037B   23295.86019048 -.00000070  00000-0  19623-5 0  9991,2 55915  69.9997 335.1393 0002661 266.9001  93.1853 14.98325815 34037,6950.206,96.107,573.92,570.221,0.0
55915.0,STARLINK-5859,PAYLOAD,2023-10-23 04:39:20,14.98326335,0.0002832,69.9994,334.2976,270.757,89.3264,1.8909e-05,1.33e-06,0.0,0 STARLINK-5859,1 55915U 23037B   23296.19399005  .00000133  00000-0  18909-4 0  9996,2 55915  69.9994 334.2976 0002832 270.7570  89.3264 14.98326335 33732,6950.204,96.107,574.038,570.101,0.0
55915.0,STARLINK-5859,PAYLOAD,2023-10-23 11:03:52,14.98326645,0.0002933,69.9986,333.6241,268.2256,91.8568,2.8566e-05,2.48e-06,0.0,0 STARLINK-5859,1 55915U 23037B   23296.46102974  .00000248  00000-0  28566-4 0  9990,2 55915  69.9986 333.6241 0002933 268.2256  91.8568 14.98326645 34129,6950.203,96.107,574.107,570.03,0.0
55915.0,STARLINK-5859,PAYLOAD,2023-10-24 04:41:21,14.98329941,0.0003085,69.9982,331.772,271.5654,88.5152,-1.0393e-05,-2.17e-06,0.0,0 STARLINK-5859,1 55915U 23037B   23297.19538903 -.00000217  00000-0 -10393-4 0  9993,2 55915  69.9982 331.7720 0003085 271.5654  88.5152 14.98329941 33880,6950.193,96.107,574.202,569.914,0.0
55915.0,STARLINK-5859,PAYLOAD,2023-10-24 11:05:53,14.9832809,0.0002719,69.9988,331.0989,269.3509,90.7338,6.8584e-05,7.25e-06,0.0,0 STARLINK-5859,1 55915U 23037B   23297.46242810  .00000725  00000-0  68584-4 0  9999,2 55915  69.9988 331.0989 0002719 269.3509  90.7338 14.98328090 34272,6950.199,96.107,573.954,570.174,0.0
55915.0,STARLINK-5859,PAYLOAD,2023-10-25 11:07:54,14.98353438,0.0002483,69.9985,328.5736,265.9643,94.1233,-0.00033982,-4.148e-05,0.0,0 STARLINK-5859,1 55915U 23037B   23298.46382084 -.00004148  00000-0 -33982-3 0  9996,2 55915  69.9985 328.5736 0002483 265.9643  94.1233 14.98353438 34073,6950.12,96.105,573.711,570.26,0.0
55915.0,STARLINK-5859,PAYLOAD,2023-10-26 04:45:23,14.98330158,0.0002897,69.9984,326.7217,271.7919,88.2908,-1.4646e-05,-2.68e-06,0.0,0 STARLINK-5859,1 55915U 23037B   23299.19818680 -.00000268  00000-0 -14646-4 0  9999,2 55915  69.9984 326.7217 0002897 271.7919  88.2908 14.98330158 34185,6950.192,96.107,574.071,570.044,0.0
55915.0,STARLINK-5859,PAYLOAD,2023-10-26 11:09:55,14.98331547,0.0002887,69.9984,326.0482,272.0714,88.0115,8.0297e-06,3e-08,0.0,0 STARLINK-5859,1 55915U 23037B   23299.46522489  .00000003  00000-0  80297-5 0  9999,2 55915  69.9984 326.0482 0002887 272.0714  88.0115 14.98331547 34572,6950.188,96.107,574.06,570.047,0.0
55915.0,STARLINK-5859,PAYLOAD,2023-10-26 19:10:35,14.98339826,0.0002911,69.9985,325.2069,272.4961,87.5865,-0.00012588,-1.595e-05,0.0,0 STARLINK-5859,1 55915U 23037B   23299.79902189 -.00001595  00000-0 -12588-3 0  9999,2 55915  69.9985 325.2069 0002911 272.4961  87.5865 14.98339826 34621,6950.163,96.106,574.051,570.004,0.0
55915.0,STARLINK-5859,PAYLOAD,2023-10-27 04:47:24,14.98331574,0.0002953,69.9982,324.197,270.6589,89.4231,-1.5196e-05,-2.74e-06,0.0,0 STARLINK-5859,1 55915U 23037B   23300.19958409 -.00000274  00000-0 -15196-4 0  9994,2 55915  69.9982 324.1970 0002953 270.6589  89.4231 14.98331574 34337,6950.188,96.107,574.105,570.001,0.0
55915.0,STARLINK-5859,PAYLOAD,2023-10-27 11:11:56,14.98332838,0.0002883,69.9983,323.5239,269.9206,90.1623,1.9904e-05,1.45e-06,0.0,0 STARLINK-5859,1 55915U 23037B   23300.46662173  .00000145  00000-0  19904-4 0  9990,2 55915  69.9983 323.5239 0002883 269.9206  90.1623 14.98332838 34729,6950.184,96.107,574.053,570.045,0.0
55915.0,STARLINK-5859,PAYLOAD,2023-10-28 11:13:57,14.9832466,0.0002837,69.9981,320.9969,266.0642,94.0193,-5.2998e-05,-7.25e-06,0.0,0 STARLINK-5859,1 55915U 23037B   23301.46802964 -.00000725  00000-0 -52998-4 0  9991,2 55915  69.9981 320.9969 0002837 266.0642  94.0193 14.98324660 34526,6950.209,96.107,574.046,570.103,0.0
55915.0,STARLINK-5859,PAYLOAD,2023-10-28 19:14:37,14.98328127,0.0002812,69.9985,320.1555,267.433,92.6507,-2.5394e-05,-3.96e-06,0.0,0 STARLINK-5859,1 55915U 23037B   23301.80182752 -.00000396  00000-0 -25394-4 0  9999,2 55915  69.9985 320.1555 0002812 267.4330  92.6507 14.98328127 34924,6950.199,96.107,574.018,570.109,0.0
55915.0,STARLINK-5859,PAYLOAD,2023-10-29 04:51:25,14.98323206,0.0002963,69.9979,319.1451,266.8129,93.2691,0.00022104,2.545e-05,0.0,0 STARLINK-5859,1 55915U 23037B   23302.20238338  .00002545  00000-0  22104-3 0  9997,2 55915  69.9979 319.1451 0002963 266.8129  93.2691 14.98323206 34638,6950.214,96.107,574.138,570.02,0.0
55915.0,STARLINK-5859,PAYLOAD,2023-10-29 11:15:57,14.98337243,0.0002966,69.9979,318.4728,267.2169,92.8651,7.8523e-05,8.44e-06,0.0,0 STARLINK-5859,1 55915U 23037B   23302.46941704  .00000844  00000-0  78523-4 0  9990,2 55915  69.9979 318.4728 0002966 267.2169  92.8651 14.98337243 34670,6950.17,96.107,574.097,569.974,0.0
55915.0,STARLINK-5859,PAYLOAD,2023-10-30 04:53:27,14.98322892,0.0002614,69.9988,316.6216,266.9403,93.1457,4.6616e-05,4.63e-06,0.0,0 STARLINK-5859,1 55915U 23037B   23303.20378743  .00000463  00000-0  46616-4 0  9995,2 55915  69.9988 316.6216 0002614 266.9403  93.1457 14.98322892 34783,6950.215,96.107,573.897,570.263,0.0
55915.0,STARLINK-5859,PAYLOAD,2023-10-30 11:17:59,14.98321733,0.0002464,69.999,315.9478,269.9612,90.1265,4.5712e-05,4.52e-06,0.0,0 STARLINK-5859,1 55915U 23037B   23303.47082980  .00000452  00000-0  45712-4 0  9993,2 55915  69.9990 315.9478 0002464 269.9612  90.1265 14.98321733 35177,6950.218,96.108,573.796,570.371,0.0
55915.0,STARLINK-5859,PAYLOAD,2023-10-31 04:55:28,14.9833144,0.0002793,69.9981,314.0958,269.791,90.2929,-5.497e-05,-7.49e-06,0.0,0 STARLINK-5859,1 55915U 23037B   23304.20518603 -.00000749  00000-0 -54970-4 0  9998,2 55915  69.9981 314.0958 0002793 269.7910  90.2929 14.98331440 34931,6950.188,96.107,573.995,570.112,0.0
55915.0,STARLINK-5859,PAYLOAD,2023-10-31 11:20:00,14.98330386,0.0002561,69.9983,313.4225,266.6307,93.4559,-2.0791e-05,-3.41e-06,0.0,0 STARLINK-5859,1 55915U 23037B   23304.47222556 -.00000341  00000-0 -20791-4 0  9998,2 55915  69.9983 313.4225 0002561 266.6307  93.4559 14.98330386 35328,6950.192,96.107,573.837,570.277,0.0
55915.0,STARLINK-5859,PAYLOAD,2023-10-31 17:44:32,14.9834998,0.0002649,69.9989,312.7494,272.2569,87.8286,-0.00038865,-4.729e-05,0.0,0 STARLINK-5859,1 55915U 23037B   23304.73926140 -.00004729  00000-0 -38865-3 0  9991,2 55915  69.9989 312.7494 0002649 272.2569  87.8286 14.98349980 35014,6950.131,96.106,573.837,570.155,0.0
55915.0,STARLINK-5859,PAYLOAD,2023-11-01 04:57:29,14.98327549,0.0002661,69.9982,311.5708,270.5638,89.5216,2.9185e-05,2.55e-06,0.0,0 STARLINK-5859,1 55915U 23037B   23305.20658607  .00000255  00000-0  29185-4 0  9998,2 55915  69.9982 311.5708 0002661 270.5638  89.5216 14.98327549 35080,6950.2,96.107,573.915,570.216,0.0
55915.0,STARLINK-5859,PAYLOAD,2023-11-01 11:22:00,14.98336744,0.000272,69.9986,310.8965,258.0025,102.083,0.00013381,1.504e-05,0.0,0 STARLINK-5859,1 55915U 23037B   23305.47361681  .00001504  00000-0  13381-3 0  9998,2 55915  69.9986 310.8965 0002720 258.0025 102.0830 14.98336744 35123,6950.172,96.107,573.927,570.147,0.0
55915.0,STARLINK-5859,PAYLOAD,2023-11-01 17:46:33,14.98327674,0.0002468,69.9986,310.2227,273.3846,86.703,1.2179e-05,5.2e-07,0.0,0 STARLINK-5859,1 55915U 23037B   23305.74066732  .00000052  00000-0  12179-4 0  9999,2 55915  69.9986 310.2227 0002468 273.3846  86.7030 14.98327674 35164,6950.2,96.107,573.78,570.35,0.0
55915.0,STARLINK-5859,PAYLOAD,2023-11-02 04:59:29,14.98331961,0.0002377,69.9983,309.0443,241.3795,118.7125,2.8331e-05,2.45e-06,0.0,0 STARLINK-5859,1 55915U 23037B   23306.20798250  .00000245  00000-0  28331-4 0  9999,2 55915  69.9983 309.0443 0002377 241.3795 118.7125 14.98331961 35237,6950.187,96.107,573.704,570.4,0.0
55915.0,STARLINK-5859,PAYLOAD,2023-11-02 09:47:53,14.98332704,0.0002677,69.998,308.5395,265.7301,94.3552,4.6724e-05,4.65e-06,0.0,0 STARLINK-5859,1 55915U 23037B   23306.40826171  .00000465  00000-0  46724-4 0  9995,2 55915  69.9980 308.5395 0002677 265.7301  94.3552 14.98332704 35611,6950.185,96.107,573.91,570.189,0.0
55915.0,STARLINK-5859,PAYLOAD,2023-11-02 17:48:34,14.98326863,0.0002272,69.9994,307.6974,271.5322,88.5577,-1.26e-05,-2.43e-06,0.0,0 STARLINK-5859,1 55915U 23037B   23306.74206832 -.00000243  00000-0 -12600-4 0  9990,2 55915  69.9994 307.6974 0002272 271.5322  88.5577 14.98326863 35316,6950.203,96.107,573.647,570.489,0.0
55915.0,STARLINK-5859,PAYLOAD,2023-11-03 05:01:32,14.98304681,0.0002177,69.9986,306.519,252.3261,107.766,0.0001303,1.461e-05,0.0,0 STARLINK-5859,1 55915U 23037B   23307.20939820  .00001461  00000-0  13030-3 0  9990,2 55915  69.9986 306.5190 0002177 252.3261 107.7660 14.98304681 35386,6950.271,96.109,573.649,570.623,0.0
